[{"OBJECT_NAME":"STARLINK-2583","OBJECT_ID":"2021-040M","EPOCH":"2026-03-09T12:47:26.085984","MEAN_MOTION":15.30216118,"ECCENTRICITY":0.00011135,"INCLINATION":53.1587,"RA_OF_ASC_NODE":178.8653,"ARG_OF_PERICENTER":87.8466,"MEAN_ANOMALY":272.2662,"EPHEMERIS_TYPE":0,"CLASSIFICATION_TYPE":"U","NORAD_CAT_ID":48439,"ELEMENT_SET_NO":999,"REV_AT_EPOCH":26665,"BSTAR":0.00047580018,"MEAN_MOTION_DOT":0.00013766,"MEAN_MOTION_DDOT":0},{"OBJECT_NAME":"KUIPER-00180","OBJECT_ID":"2026-030E","EPOCH":"2026-03-09T22:29:40.634304","MEAN_MOTION":15.31865817,"ECCENTRICITY":0.00157227,"INCLINATION":51.8823,"RA_OF_ASC_NODE":218.464,"ARG_OF_PERICENTER":75.5448,"MEAN_ANOMALY":284.728,"EPHEMERIS_TYPE":0,"CLASSIFICATION_TYPE":"U","NORAD_CAT_ID":67768,"ELEMENT_SET_NO":999,"REV_AT_EPOCH":512,"BSTAR":0.011360708,"MEAN_MOTION_DOT":0.00373574,"MEAN_MOTION_DDOT":0}]
